{"fetched_at":"2026-03-29T16:36:15Z","count":15609,"tles":[{"name":"STARLINK-33581","line1":"1 62784U 25015AC  26087.66757751  .00023136  00000+0  79068-3 0  9994","line2":"2 62784  53.1612 234.5194 0000698  61.8800 298.2271 15.30205956 67382","category":"Starlink"}]}